{
  "type": "FeatureCollection",
  "features": [
    {
      "type": "Feature",
      "properties": {
        "norad_id": 44709,
        "name": "BEIDOU-3 IGSO-3 (C40)",
        "group": "beidou",
        "lat": -55.11024047103312,
        "lon": -163.69584360550593,
        "alt_km": 35768.81770887419,
        "timestamp": "2025-12-18T23:35:49.325597+00:00",
        "meta_object_name": "BEIDOU-3 IGSO-3 (C40)",
        "meta_object_id": "2019-073A",
        "meta_epoch": "2025-11-20T07:11:22.740000",
        "meta_mean_motion": 1.00250097,
        "meta_eccentricity": 0.0044538,
        "meta_inclination": 55.163,
        "meta_ra_of_asc_node": 283.159,
        "meta_arg_of_pericenter": 191.5856,
        "meta_mean_anomaly": 168.2409,
        "meta_ephemeris_type": 0,
        "meta_classification_type": "U",
        "meta_norad_cat_id": 44709,
        "meta_element_set_no": 999,
        "meta_rev_at_epoch": 2236,
        "meta_bstar": 0,
        "meta_mean_motion_dot": -2.06e-06,
        "meta_mean_motion_ddot": 0,
        "tle_line1": "1 44709U 19073A   25324.29956875 -.00000206  00000+0  00000+0 0  9998",
        "tle_line2": "2 44709  55.1630 283.1590 0044538 191.5856 168.2409  1.00250097 22360"
      },
      "geometry": {
        "type": "Point",
        "coordinates": [
          -163.69584360550593,
          -55.11024047103312
        ]
      }
    },
    {
      "type": "Feature",
      "properties": {
        "norad_id": 44793,
        "name": "BEIDOU-3 M22 (C44)",
        "group": "beidou",
        "lat": -26.21684746410271,
        "lon": 147.01712256841705,
        "alt_km": 21547.8784512314,
        "timestamp": "2025-12-18T23:35:49.325613+00:00",
        "meta_object_name": "BEIDOU-3 M22 (C44)",
        "meta_object_id": "2019-078A",
        "meta_epoch": "2025-12-18T03:05:10.380768",
        "meta_mean_motion": 1.86232153,
        "meta_eccentricity": 0.00060099,
        "meta_inclination": 54.1032,
        "meta_ra_of_asc_node": 306.1968,
        "meta_arg_of_pericenter": 24.2925,
        "meta_mean_anomaly": 335.7236,
        "meta_ephemeris_type": 0,
        "meta_classification_type": "U",
        "meta_norad_cat_id": 44793,
        "meta_element_set_no": 999,
        "meta_rev_at_epoch": 4127,
        "meta_bstar": 0,
        "meta_mean_motion_dot": -8.5e-07,
        "meta_mean_motion_ddot": 0,
        "tle_line1": "1 44793U 19078A   25352.12859237 -.00000085  00000+0  00000+0 0  9998",
        "tle_line2": "2 44793  54.1032 306.1968 0006009  24.2925 335.7236  1.86232153 41270"
      },
      "geometry": {
        "type": "Point",
        "coordinates": [
          147.01712256841705,
          -26.21684746410271
        ]
      }
    },
    {
      "type": "Feature",
      "properties": {
        "norad_id": 44794,
        "name": "BEIDOU-3 M21 (C43)",
        "group": "beidou",
        "lat": 44.151943060904856,
        "lon": 81.42375552010269,
        "alt_km": 21526.733758576112,
        "timestamp": "2025-12-18T23:35:49.325625+00:00",
        "meta_object_name": "BEIDOU-3 M21 (C43)",
        "meta_object_id": "2019-078B",
        "meta_epoch": "2025-12-16T15:43:55.727904",
        "meta_mean_motion": 1.86227668,
        "meta_eccentricity": 0.00041169,
        "meta_inclination": 54.078,
        "meta_ra_of_asc_node": 306.2132,
        "meta_arg_of_pericenter": 11.942,
        "meta_mean_anomaly": 348.0544,
        "meta_ephemeris_type": 0,
        "meta_classification_type": "U",
        "meta_norad_cat_id": 44794,
        "meta_element_set_no": 999,
        "meta_rev_at_epoch": 4125,
        "meta_bstar": 0,
        "meta_mean_motion_dot": -9.5e-07,
        "meta_mean_motion_ddot": 0,
        "tle_line1": "1 44794U 19078B   25350.65550611 -.00000095  00000+0  00000+0 0  9990",
        "tle_line2": "2 44794  54.0780 306.2132 0004116  11.9420 348.0544  1.86227668 41256"
      },
      "geometry": {
        "type": "Point",
        "coordinates": [
          81.42375552010269,
          44.151943060904856
        ]
      }
    },
    {
      "type": "Feature",
      "properties": {
        "norad_id": 44864,
        "name": "BEIDOU-3 M19 (C41)",
        "group": "beidou",
        "lat": -35.00820666672435,
        "lon": 41.06170667689411,
        "alt_km": 21489.199755755762,
        "timestamp": "2025-12-18T23:35:49.325636+00:00",
        "meta_object_name": "BEIDOU-3 M19 (C41)",
        "meta_object_id": "2019-090A",
        "meta_epoch": "2025-12-18T12:21:17.080992",
        "meta_mean_motion": 1.86231635,
        "meta_eccentricity": 0.00181366,
        "meta_inclination": 56.3981,
        "meta_ra_of_asc_node": 68.7699,
        "meta_arg_of_pericenter": 285.1234,
        "meta_mean_anomaly": 77.2184,
        "meta_ephemeris_type": 0,
        "meta_classification_type": "U",
        "meta_norad_cat_id": 44864,
        "meta_element_set_no": 999,
        "meta_rev_at_epoch": 4087,
        "meta_bstar": 0,
        "meta_mean_motion_dot": -6.2e-07,
        "meta_mean_motion_ddot": 0,
        "tle_line1": "1 44864U 19090A   25352.51478103 -.00000062  00000+0  00000+0 0  9998",
        "tle_line2": "2 44864  56.3981  68.7699 0018136 285.1234  77.2184  1.86231635 40872"
      },
      "geometry": {
        "type": "Point",
        "coordinates": [
          41.06170667689411,
          -35.00820666672435
        ]
      }
    },
    {
      "type": "Feature",
      "properties": {
        "norad_id": 44865,
        "name": "BEIDOU-3 M20 (C42)",
        "group": "beidou",
        "lat": 36.932480076060465,
        "lon": 98.73588743059676,
        "alt_km": 21537.540084625347,
        "timestamp": "2025-12-18T23:35:49.325648+00:00",
        "meta_object_name": "BEIDOU-3 M20 (C42)",
        "meta_object_id": "2019-090B",
        "meta_epoch": "2025-12-18T13:12:22.451040",
        "meta_mean_motion": 1.86231689,
        "meta_eccentricity": 0.00154108,
        "meta_inclination": 56.3994,
        "meta_ra_of_asc_node": 68.8029,
        "meta_arg_of_pericenter": 297.0214,
        "meta_mean_anomaly": 178.7198,
        "meta_ephemeris_type": 0,
        "meta_classification_type": "U",
        "meta_norad_cat_id": 44865,
        "meta_element_set_no": 999,
        "meta_rev_at_epoch": 4085,
        "meta_bstar": 0,
        "meta_mean_motion_dot": -6.2e-07,
        "meta_mean_motion_ddot": 0,
        "tle_line1": "1 44865U 19090B   25352.55025985 -.00000062  00000+0  00000+0 0  9999",
        "tle_line2": "2 44865  56.3994  68.8029 0015410 297.0214 178.7198  1.86231689 40856"
      },
      "geometry": {
        "type": "Point",
        "coordinates": [
          98.73588743059676,
          36.932480076060465
        ]
      }
    },
    {
      "type": "Feature",
      "properties": {
        "norad_id": 45344,
        "name": "BEIDOU-3 G2 (C60)",
        "group": "beidou",
        "lat": 2.225033212946681,
        "lon": 161.809992145174,
        "alt_km": 35789.53308343064,
        "timestamp": "2025-12-18T23:35:49.325659+00:00",
        "meta_object_name": "BEIDOU-3 G2 (C60)",
        "meta_object_id": "2020-017A",
        "meta_epoch": "2025-12-18T15:23:14.653248",
        "meta_mean_motion": 1.00273352,
        "meta_eccentricity": 0.0002097,
        "meta_inclination": 2.5076,
        "meta_ra_of_asc_node": 44.073,
        "meta_arg_of_pericenter": 235.8561,
        "meta_mean_anomaly": 118.4037,
        "meta_ephemeris_type": 0,
        "meta_classification_type": "U",
        "meta_norad_cat_id": 45344,
        "meta_element_set_no": 999,
        "meta_rev_at_epoch": 2144,
        "meta_bstar": 0,
        "meta_mean_motion_dot": -1.18e-06,
        "meta_mean_motion_ddot": 0,
        "tle_line1": "1 45344U 20017A   25352.64114182 -.00000118  00000+0  00000+0 0  9993",
        "tle_line2": "2 45344   2.5076  44.0730 0002097 235.8561 118.4037  1.00273352 21446"
      },
      "geometry": {
        "type": "Point",
        "coordinates": [
          161.809992145174,
          2.225033212946681
        ]
      }
    },
    {
      "type": "Feature",
      "properties": {
        "norad_id": 45807,
        "name": "BEIDOU-3 G3 (C61)",
        "group": "beidou",
        "lat": 1.6188755409000635,
        "lon": -167.61185357672466,
        "alt_km": 35812.91383309704,
        "timestamp": "2025-12-18T23:35:49.325671+00:00",
        "meta_object_name": "BEIDOU-3 G3 (C61)",
        "meta_object_id": "2020-040A",
        "meta_epoch": "2025-12-18T15:53:28.851072",
        "meta_mean_motion": 1.00271392,
        "meta_eccentricity": 0.0006414,
        "meta_inclination": 2.0051,
        "meta_ra_of_asc_node": 66.6361,
        "meta_arg_of_pericenter": 309.2378,
        "meta_mean_anomaly": 60.5993,
        "meta_ephemeris_type": 0,
        "meta_classification_type": "U",
        "meta_norad_cat_id": 45807,
        "meta_element_set_no": 999,
        "meta_rev_at_epoch": 2026,
        "meta_bstar": 0,
        "meta_mean_motion_dot": -3.3e-06,
        "meta_mean_motion_ddot": 0,
        "tle_line1": "1 45807U 20040A   25352.66213948 -.00000330  00000+0  00000+0 0  9991",
        "tle_line2": "2 45807   2.0051  66.6361 0006414 309.2378  60.5993  1.00271392 20266"
      },
      "geometry": {
        "type": "Point",
        "coordinates": [
          -167.61185357672466,
          1.6188755409000635
        ]
      }
    }
  ]
}